STARLINK-30608          
1 58091U 23160S   26068.39715367 -.00001490  00000+0 -45844-4 0  9992
2 58091  43.0044  79.3124 0002121 278.4884  81.5727 15.26739179132908
GESAT GEN1              
1 62612U 25009D   26068.72662138  .00010041  00000+0  38326-3 0  9990
2 62612  97.4058 151.4598 0000888  98.3547 261.7793 15.26847505 63732
